NORAD_CAT_ID,OBJECT_NAME,OBJECT_TYPE,EPOCH,MEAN_MOTION,ECCENTRICITY,INCLINATION,RA_OF_ASC_NODE,ARG_OF_PERICENTER,MEAN_ANOMALY,BSTAR,MEAN_MOTION_DOT,MEAN_MOTION_DDOT,TLE_LINE0,TLE_LINE1,TLE_LINE2,SEMIMAJOR_AXIS,PERIOD,APOGEE,PERIGEE,DECAYED
55755.0,STARLINK-5619,PAYLOAD,2024-08-04 20:57:30,14.98341368,0.0003282,69.9989,271.2573,269.4598,90.6185,0.00025412,2.941e-05,0.0,0 STARLINK-5619,1 55755U 23028Q   24217.87327216  .00002941  00000-0  25412-3 0  9997,2 55755  69.9989 271.2573 0003282 269.4598  90.6185 14.98341368 78892,6950.158,96.106,574.304,569.742,0.0
55755.0,STARLINK-5619,PAYLOAD,2024-08-05 12:58:49,14.98360348,0.0003319,69.9985,269.5732,269.9519,90.1259,0.00042245,4.955e-05,0.0,0 STARLINK-5619,1 55755U 23028Q   24218.54085355  .00004955  00000-0  42245-3 0  9997,2 55755  69.9985 269.5732 0003319 269.9519  90.1259 14.98360348 78991,6950.099,96.105,574.271,569.657,0.0
55755.0,STARLINK-5619,PAYLOAD,2024-08-05 20:59:32,14.98332457,0.0002765,69.9993,268.731,268.9315,91.1527,6.2832e-05,6.57e-06,0.0,0 STARLINK-5619,1 55755U 23028Q   24218.87467792  .00000657  00000-0  62832-4 0  9992,2 55755  69.9993 268.7310 0002765 268.9315  91.1527 14.98332457 79046,6950.185,96.107,573.972,570.129,0.0
55755.0,STARLINK-5619,PAYLOAD,2024-08-06 05:00:13,14.98315717,0.0003099,69.9984,267.8861,269.044,91.0364,0.00024312,2.808e-05,0.0,0 STARLINK-5619,1 55755U 23028Q   24219.20848922  .00002808  00000-0  24312-3 0  9998,2 55755  69.9984 267.8861 0003099 269.0440  91.0364 14.98315717 79092,6950.237,96.108,574.256,569.948,0.0
55755.0,STARLINK-5619,PAYLOAD,2024-08-06 13:00:53,14.98324998,0.0003294,69.9993,267.0489,263.3832,96.6952,-0.00031808,-3.886e-05,0.0,0 STARLINK-5619,1 55755U 23028Q   24219.54228376 -.00003886  00000-0 -31808-3 0  9997,2 55755  69.9993 267.0489 0003294 263.3832  96.6952 14.98324998 79140,6950.208,96.107,574.363,569.784,0.0
55755.0,STARLINK-5619,PAYLOAD,2024-08-07 03:26:05,14.98332023,0.0003311,69.9993,265.5335,264.2159,95.8623,-0.00024986,-3.073e-05,0.0,0 STARLINK-5619,1 55755U 23028Q   24220.14311978 -.00003073  00000-0 -24986-3 0  9993,2 55755  69.9993 265.5335 0003311 264.2159  95.8623 14.98332023 79239,6950.187,96.107,574.353,569.75,0.0
55755.0,STARLINK-5619,PAYLOAD,2024-08-07 11:26:45,14.98333125,0.0003324,69.9994,264.6919,263.5459,96.5322,0.00010812,1.197e-05,0.0,0 STARLINK-5619,1 55755U 23028Q   24220.47692038  .00001197  00000-0  10812-3 0  9994,2 55755  69.9994 264.6919 0003324 263.5459  96.5322 14.98333125 79280,6950.183,96.107,574.358,569.738,0.0
55755.0,STARLINK-5619,PAYLOAD,2024-08-08 13:04:54,14.98356107,0.0003384,69.9994,261.9986,262.9906,97.0868,0.00096704,0.00011472,0.0,0 STARLINK-5619,1 55755U 23028Q   24221.54507462  .00011472  00000-0  96704-3 0  9990,2 55755  69.9994 261.9986 0003384 262.9906  97.0868 14.98356107 79444,6950.112,96.105,574.329,569.625,0.0
55755.0,STARLINK-5619,PAYLOAD,2024-08-09 05:06:14,14.98345843,0.0003121,70.0,260.3154,261.5204,98.5602,0.00026768,3.104e-05,0.0,0 STARLINK-5619,1 55755U 23028Q   24222.21267091  .00003104  00000-0  26768-3 0  9992,2 55755  70.0000 260.3154 0003121 261.5204  98.5602 14.98345843 79548,6950.144,96.106,574.178,569.84,0.0
55755.0,STARLINK-5619,PAYLOAD,2024-08-09 11:30:46,14.98346684,0.0003112,69.9999,259.6421,261.0491,99.0316,0.00027306,3.168e-05,0.0,0 STARLINK-5619,1 55755U 23028Q   24222.47970839  .00003168  00000-0  27306-3 0  9990,2 55755  69.9999 259.6421 0003112 261.0491  99.0316 14.98346684 79589,6950.141,96.106,574.169,569.843,0.0
55755.0,STARLINK-5619,PAYLOAD,2024-08-09 19:31:27,14.98340225,0.0002874,70.0004,258.8,263.7332,96.35,8.8357e-06,1.2e-07,0.0,0 STARLINK-5619,1 55755U 23028Q   24222.81350884  .00000012  00000-0  88357-5 0  9990,2 55755  70.0004 258.8000 0002874 263.7332  96.3500 14.98340225 79636,6950.161,96.106,574.024,570.029,0.0
55755.0,STARLINK-5619,PAYLOAD,2024-08-10 11:32:48,14.98333325,0.0002864,69.9991,257.1179,259.7386,100.345,-7.8829e-05,-1.034e-05,0.0,0 STARLINK-5619,1 55755U 23028Q   24223.48111496 -.00001034  00000-0 -78829-4 0  9997,2 55755  69.9991 257.1179 0002864 259.7386 100.3450 14.98333325 79734,6950.183,96.107,574.038,570.057,0.0
55755.0,STARLINK-5619,PAYLOAD,2024-08-10 13:08:56,14.98333952,0.0002805,69.9991,256.9494,255.9461,104.1386,-7.0711e-05,-9.37e-06,0.0,0 STARLINK-5619,1 55755U 23028Q   24223.54787428 -.00000937  00000-0 -70711-4 0  9991,2 55755  69.9991 256.9494 0002805 255.9461 104.1386 14.98333952 79745,6950.181,96.107,573.995,570.096,0.0
55755.0,STARLINK-5619,PAYLOAD,2024-08-11 11:34:48,14.98333227,0.0002987,69.9986,254.5921,264.2723,95.8095,1.6343e-05,1.02e-06,0.0,0 STARLINK-5619,1 55755U 23028Q   24224.48251106  .00000102  00000-0  16343-4 0  9997,2 55755  69.9986 254.5921 0002987 264.2723  95.8095 14.98333227 79886,6950.183,96.107,574.124,569.972,0.0
55755.0,STARLINK-5619,PAYLOAD,2024-08-11 19:35:28,14.98338499,0.0003317,69.9979,253.7491,263.1165,96.9616,2.1053e-05,1.58e-06,0.0,0 STARLINK-5619,1 55755U 23028Q   24224.81630600  .00000158  00000-0  21053-4 0  9999,2 55755  69.9979 253.7491 0003317 263.1165  96.9616 14.98338499 79930,6950.167,96.106,574.337,569.726,0.0
55755.0,STARLINK-5619,PAYLOAD,2024-08-12 11:36:49,14.98340326,0.0003098,69.9981,252.0662,266.8778,93.2027,0.00022657,2.612e-05,0.0,0 STARLINK-5619,1 55755U 23028Q   24225.48390069  .00002612  00000-0  22657-3 0  9992,2 55755  69.9981 252.0662 0003098 266.8778  93.2027 14.98340326 80032,6950.161,96.106,574.179,569.873,0.0
55755.0,STARLINK-5619,PAYLOAD,2024-08-12 19:37:29,14.98337503,0.0002899,69.999,251.2242,269.8251,90.2576,0.0001709,1.947e-05,0.0,0 STARLINK-5619,1 55755U 23028Q   24225.81770396  .00001947  00000-0  17090-3 0  9999,2 55755  69.9990 251.2242 0002899 269.8251  90.2576 14.98337503 80088,6950.17,96.107,574.05,570.02,0.0
55755.0,STARLINK-5619,PAYLOAD,2024-08-13 05:14:18,14.98331732,0.0003064,69.9998,250.2149,269.8685,90.2123,4.6779e-05,4.65e-06,0.0,0 STARLINK-5619,1 55755U 23028Q   24226.21826637  .00000465  00000-0  46779-4 0  9995,2 55755  69.9998 250.2149 0003064 269.8685  90.2123 14.98331732 80140,6950.188,96.107,574.182,569.923,0.0
55755.0,STARLINK-5619,PAYLOAD,2024-08-13 10:02:42,14.98333428,0.0002924,69.9983,249.7113,264.6262,95.4563,9.1358e-05,9.97e-06,0.0,0 STARLINK-5619,1 55755U 23028Q   24226.41854432  .00000997  00000-0  91358-4 0  9994,2 55755  69.9983 249.7113 0002924 264.6262  95.4563 14.98333428 80178,6950.182,96.107,574.08,570.015,0.0
55755.0,STARLINK-5619,PAYLOAD,2024-08-14 05:16:20,14.98319387,0.0003039,69.9981,247.6893,270.1517,89.9294,-8.8864e-05,-1.153e-05,0.0,0 STARLINK-5619,1 55755U 23028Q   24227.21967862 -.00001153  00000-0 -88864-4 0  9990,2 55755  69.9981 247.6893 0003039 270.1517  89.9294 14.98319387 80291,6950.226,96.108,574.203,569.979,0.0
55755.0,STARLINK-5619,PAYLOAD,2024-08-14 11:40:52,14.98313326,0.0002846,69.9985,247.018,264.4972,95.5862,-6.4478e-05,-8.62e-06,0.0,0 STARLINK-5619,1 55755U 23028Q   24227.48672334 -.00000862  00000-0 -64478-4 0  9997,2 55755  69.9985 247.0180 0002846 264.4972  95.5862 14.98313326 80330,6950.244,96.108,574.087,570.131,0.0
55755.0,STARLINK-5619,PAYLOAD,2024-08-14 18:05:24,14.98321574,0.0002936,69.9982,246.3444,267.6129,92.4694,-0.00013019,-1.646e-05,0.0,0 STARLINK-5619,1 55755U 23028Q   24227.75376077 -.00001646  00000-0 -13019-3 0  9997,2 55755  69.9982 246.3444 0002936 267.6129  92.4694 14.98321574 80378,6950.219,96.108,574.125,570.043,0.0
55755.0,STARLINK-5619,PAYLOAD,2024-08-15 03:42:13,14.98293755,0.0002943,69.9977,245.3329,267.9164,92.1658,0.00048606,5.706e-05,0.0,0 STARLINK-5619,1 55755U 23028Q   24228.15432753  .00005706  00000-0  48606-3 0  9995,2 55755  69.9977 245.3329 0002943 267.9164  92.1658 14.98293755 80436,6950.305,96.109,574.215,570.125,0.0
55755.0,STARLINK-5619,PAYLOAD,2024-08-15 10:06:45,14.98324549,0.0003059,69.9977,244.6601,268.6626,91.4182,-1.3552e-05,-2.55e-06,0.0,0 STARLINK-5619,1 55755U 23028Q   24228.42135906 -.00000255  00000-0 -13552-4 0  9994,2 55755  69.9977 244.6601 0003059 268.6626  91.4182 14.98324549 80475,6950.21,96.107,574.201,569.949,0.0
55755.0,STARLINK-5619,PAYLOAD,2024-08-15 18:07:26,14.98298661,0.0002866,69.9978,243.8177,268.5936,91.4895,0.00051746,6.082e-05,0.0,0 STARLINK-5619,1 55755U 23028Q   24228.75516739  .00006082  00000-0  51746-3 0  9995,2 55755  69.9978 243.8177 0002866 268.5936  91.4895 14.98298661 80525,6950.29,96.109,574.147,570.163,0.0
55755.0,STARLINK-5619,PAYLOAD,2024-08-16 03:44:14,14.98322354,0.0003161,69.9976,242.8076,273.5306,86.5491,0.00018683,2.136e-05,0.0,0 STARLINK-5619,1 55755U 23028Q   24229.15571957  .00002136  00000-0  18683-3 0  9992,2 55755  69.9976 242.8076 0003161 273.5306  86.5491 14.98322354 80586,6950.217,96.107,574.278,569.885,0.0
55755.0,STARLINK-5619,PAYLOAD,2024-08-16 10:08:46,14.98326146,0.000313,69.9977,242.1344,273.104,86.9761,0.00022397,2.58e-05,0.0,0 STARLINK-5619,1 55755U 23028Q   24229.42275824  .00002580  00000-0  22397-3 0  9996,2 55755  69.9977 242.1344 0003130 273.1040  86.9761 14.98326146 80627,6950.205,96.107,574.245,569.894,0.0
55755.0,STARLINK-5619,PAYLOAD,2024-08-16 19:45:34,14.98332248,0.0003167,69.9976,241.1244,273.0067,87.073,0.00023688,2.735e-05,0.0,0 STARLINK-5619,1 55755U 23028Q   24229.82331542  .00002735  00000-0  23688-3 0  9996,2 55755  69.9976 241.1244 0003167 273.0067  87.0730 14.98332248 80686,6950.186,96.107,574.252,569.85,0.0
55755.0,STARLINK-5619,PAYLOAD,2024-08-17 06:58:30,14.9833863,0.0003183,69.9977,239.9461,272.8387,87.2408,0.00023765,2.744e-05,0.0,0 STARLINK-5619,1 55755U 23028Q   24230.29063203  .00002744  00000-0  23765-3 0  9991,2 55755  69.9977 239.9461 0003183 272.8387  87.2408 14.98338630 80756,6950.166,96.106,574.243,569.819,0.0
55755.0,STARLINK-5619,PAYLOAD,2024-08-18 03:48:15,14.98337391,0.0003041,69.9982,237.758,271.2349,88.8461,0.00010559,1.167e-05,0.0,0 STARLINK-5619,1 55755U 23028Q   24231.15851180  .00001167  00000-0  10559-3 0  9991,2 55755  69.9982 237.7580 0003041 271.2349  88.8461 14.98337391 80887,6950.17,96.107,574.149,569.921,0.0
